{
  "type": "FeatureCollection",
  "features": [
    {
      "type": "Feature",
      "properties": {
        "norad_id": 53093,
        "name": "COSMOS 2251 DEB",
        "group": "cosmos-2251-debris",
        "lat": 35.001293529551596,
        "lon": 85.864144401267,
        "alt_km": 761.7692403983729,
        "timestamp": "2025-12-25T16:53:15.062344+00:00",
        "meta_object_name": "COSMOS 2251 DEB",
        "meta_object_id": "1993-036BYP",
        "meta_epoch": "2025-12-25T04:34:12.384768",
        "meta_mean_motion": 14.41946872,
        "meta_eccentricity": 0.00199065,
        "meta_inclination": 74.0363,
        "meta_ra_of_asc_node": 278.3778,
        "meta_arg_of_pericenter": 353.4951,
        "meta_mean_anomaly": 6.5943,
        "meta_ephemeris_type": 0,
        "meta_classification_type": "U",
        "meta_norad_cat_id": 53093,
        "meta_element_set_no": 999,
        "meta_rev_at_epoch": 17905,
        "meta_bstar": 0.00091161267,
        "meta_mean_motion_dot": 2.969e-05,
        "meta_mean_motion_ddot": 0,
        "tle_line1": "1 53093U 93036BYP 25359.19042112  .00002969  00000+0  91161-3 0  9991",
        "tle_line2": "2 53093  74.0363 278.3778 0019906 353.4951   6.5943 14.41946872179057"
      },
      "geometry": {
        "type": "Point",
        "coordinates": [
          85.864144401267,
          35.001293529551596
        ]
      }
    }
  ]
}